{
    "links": {
        "self": "http://www.neowsapp.com/rest/v1/neo/3545557?api_key=iIulBulltgU6a56xZRHN4H3l9WmuAYTsLGpBGhQ2"
    },
    "id": "3545557",
    "neo_reference_id": "3545557",
    "name": "(2010 RW30)",
    "designation": "2010 RW30",
    "nasa_jpl_url": "http://ssd.jpl.nasa.gov/sbdb.cgi?sstr=3545557",
    "absolute_magnitude_h": 23.5,
    "estimated_diameter": {
        "kilometers": {
            "estimated_diameter_min": 0.0530340723,
            "estimated_diameter_max": 0.1185877909
        },
        "meters": {
            "estimated_diameter_min": 53.0340723319,
            "estimated_diameter_max": 118.5877908577
        },
        "miles": {
            "estimated_diameter_min": 0.0329538346,
            "estimated_diameter_max": 0.0736870142
        },
        "feet": {
            "estimated_diameter_min": 173.9963058693,
            "estimated_diameter_max": 389.0675677576
        }
    },
    "is_potentially_hazardous_asteroid": false,
    "close_approach_data": [
        {
            "close_approach_date": "2010-09-17",
            "close_approach_date_full": "2010-Sep-17 05:31",
            "epoch_date_close_approach": 1284701460000,
            "relative_velocity": {
                "kilometers_per_second": "8.7656171011",
                "kilometers_per_hour": "31556.2215640734",
                "miles_per_hour": "19607.8088935211"
            },
            "miss_distance": {
                "astronomical": "0.1632205004",
                "lunar": "63.4927746556",
                "kilometers": "24417439.200174148",
                "miles": "15172293.1704053224"
            },
            "orbiting_body": "Earth"
        }
    ],
    "orbital_data": {
        "orbit_id": "6",
        "orbit_determination_date": "2017-04-06 08:56:50",
        "first_observation_date": "2010-09-04",
        "last_observation_date": "2010-09-05",
        "data_arc_in_days": 1,
        "observations_used": 30,
        "orbit_uncertainty": "9",
        "minimum_orbit_intersection": ".152825",
        "jupiter_tisserand_invariant": "4.336",
        "epoch_osculation": "2455444.5",
        "eccentricity": ".318280356996303",
        "semi_major_axis": "1.566593396152837",
        "inclination": "12.79880936405303",
        "ascending_node_longitude": "332.0484825351364",
        "orbital_period": "716.197604521279",
        "perihelion_distance": "1.067977490757261",
        "perihelion_argument": "61.4664841490681",
        "aphelion_distance": "2.065209301548412",
        "perihelion_time": "2455492.727327711706",
        "mean_anomaly": "335.7583132551537",
        "mean_motion": ".5026545714860793",
        "equinox": "J2000",
        "orbit_class": {
            "orbit_class_type": "AMO",
            "orbit_class_description": "Near-Earth asteroid orbits similar to that of 1221 Amor",
            "orbit_class_range": "1.017 AU < q (perihelion) < 1.3 AU"
        }
    },
    "is_sentry_object": false
}